NORAD_CAT_ID,OBJECT_NAME,OBJECT_TYPE,EPOCH,MEAN_MOTION,ECCENTRICITY,INCLINATION,RA_OF_ASC_NODE,ARG_OF_PERICENTER,MEAN_ANOMALY,BSTAR,MEAN_MOTION_DOT,MEAN_MOTION_DDOT,TLE_LINE0,TLE_LINE1,TLE_LINE2,SEMIMAJOR_AXIS,PERIOD,APOGEE,PERIGEE,DECAYED
51855.0,STARLINK-3545,PAYLOAD,2023-04-20 07:11:32,15.08848775,0.0004783,53.2169,72.4731,344.2928,15.7915,9.7193e-05,1.258e-05,0.0,0 STARLINK-3545,1 51855U 22022D   23110.29967661  .00001258  00000-0  97193-4 0  9994,2 51855  53.2169  72.4731 0004783 344.2928  15.7915 15.08848775 63796,6917.854,95.437,543.027,536.41,0.0
51855.0,STARLINK-3545,PAYLOAD,2023-04-20 21:30:00,15.08839145,0.0004889,53.2169,69.797,344.4376,15.6465,7.4792e-05,9.01e-06,0.0,0 STARLINK-3545,1 51855U 22022D   23110.89584183  .00000901  00000-0  74792-4 0  9998,2 51855  53.2169  69.7970 0004889 344.4376  15.6465 15.08839145 63886,6917.883,95.438,543.13,536.366,0.0
51855.0,STARLINK-3545,PAYLOAD,2023-04-21 03:51:34,15.08832797,0.0005093,53.2166,68.6122,342.7302,17.3516,-7.6661e-05,-1.51e-05,0.0,0 STARLINK-3545,1 51855U 22022D   23111.16081143 -.00001510  00000-0 -76661-4 0  9993,2 51855  53.2166  68.6122 0005093 342.7302  17.3516 15.08832797 63925,6917.902,95.438,543.291,536.244,0.0
51855.0,STARLINK-3545,PAYLOAD,2023-04-21 07:02:20,15.08833694,0.0005094,53.2166,68.0163,343.115,16.9672,-3.33e-05,-8.2e-06,0.0,0 STARLINK-3545,1 51855U 22022D   23111.29329005 -.00000820  00000-0 -33300-4 0  9995,2 51855  53.2166  68.0163 0005094 343.1150  16.9672 15.08833694 63948,6917.9,95.438,543.289,536.241,0.0
51855.0,STARLINK-3545,PAYLOAD,2023-04-22 05:17:43,15.08841542,0.0004869,53.218,63.851,346.0511,14.0346,-6.8881e-06,-3.99e-06,0.0,0 STARLINK-3545,1 51855U 22022D   23112.22064787 -.00000399  00000-0 -68881-5 0  9996,2 51855  53.2180  63.8510 0004869 346.0511  14.0346 15.08841542 64089,6917.876,95.437,543.109,536.372,0.0
51855.0,STARLINK-3545,PAYLOAD,2023-04-23 06:43:53,15.08836858,0.0004934,53.2184,59.0991,337.0756,23.0015,0.00019495,2.815e-05,0.0,0 STARLINK-3545,1 51855U 22022D   23113.28048393  .00002815  00000-0  19495-3 0  9996,2 51855  53.2184  59.0991 0004934 337.0756  23.0015 15.08836858 64242,6917.89,95.438,543.168,536.342,0.0
51855.0,STARLINK-3545,PAYLOAD,2023-04-24 04:58:49,15.09112675,0.0004356,53.2191,54.9278,325.6785,34.3925,0.0019001,0.00030314,0.0,0 STARLINK-3545,1 51855U 22022D   23114.20751765  .00030314  00000-0  19001-2 0  9990,2 51855  53.2191  54.9278 0004356 325.6785  34.3925 15.09112675 64380,6917.047,95.42,541.925,535.899,0.0
51855.0,STARLINK-3545,PAYLOAD,2023-04-24 11:19:51,15.09453185,0.0004752,53.2188,53.7362,315.9293,44.132,0.0045247,0.0007372,0.0,0 STARLINK-3545,1 51855U 22022D   23114.47212288  .00073720  00000-0  45247-2 0  9990,2 51855  53.2188  53.7362 0004752 315.9293  44.1320 15.09453185 64420,6916.007,95.399,541.158,534.585,0.0
51855.0,STARLINK-3545,PAYLOAD,2023-04-24 17:41:03,15.09604903,0.0005631,53.2184,52.553,313.9546,46.0982,0.0055624,0.00091306,0.0,0 STARLINK-3545,1 51855U 22022D   23114.73684959  .00091306  00000-0  55624-2 0  9997,2 51855  53.2184  52.5530 0005631 313.9546  46.0982 15.09604903 64461,6915.543,95.389,541.303,533.514,0.0
51855.0,STARLINK-3545,PAYLOAD,2023-04-25 14:00:01,15.10582272,0.0007946,53.2173,48.7186,273.8546,10.3038,-0.019498,-0.00312393,0.0,0 STARLINK-3545,1 51855U 22022D   23115.58335648 -.00312393  00000-0 -19498-1 0  9991,2 51855  53.2173  48.7186 0007946 273.8546  10.3038 15.10582272  1304,6912.56,95.327,539.918,528.932,0.0
51855.0,STARLINK-3545,PAYLOAD,2023-04-25 22:00:00,15.10362396,0.0007871,53.217,47.227,270.5462,27.1094,-0.030007,-0.00467637,0.0,0 STARLINK-3545,1 51855U 22022D   23115.91667824 -.00467637  00000-0 -30007-1 0  9993,2 51855  53.2170  47.2270 0007871 270.5462  27.1094 15.10362396 64633,6913.231,95.341,540.537,529.655,0.0
51855.0,STARLINK-3545,PAYLOAD,2023-04-26 14:00:01,15.09701994,0.0005783,53.2172,44.2232,268.9138,54.8065,-0.029603,-0.00453611,0.0,0 STARLINK-3545,1 51855U 22022D   23116.58334491 -.00453611  00000-0 -29603-1 0  9995,2 51855  53.2172  44.2232 0005783 268.9138  54.8065 15.09701994  1300,6915.247,95.383,541.111,533.113,0.0
51855.0,STARLINK-3545,PAYLOAD,2023-04-27 00:00:00,15.09315004,0.0005475,53.2172,42.35,274.949,154.255,-0.032371,-0.00493083,0.0,0 STARLINK-3545,1 51855U 22022D   23117.00001157 -.00493083  00000-0 -32371-1 0  9996,2 51855  53.2172  42.3500 0005475 274.9490 154.2550 15.09315004  1300,6916.429,95.408,542.081,534.507,0.0
51855.0,STARLINK-3545,PAYLOAD,2023-04-27 04:28:08,15.09717056,0.0007963,53.2178,41.543,278.5278,81.4812,-0.0043491,-0.0007056,0.0,0 STARLINK-3545,1 51855U 22022D   23117.18621128 -.00070560  00000-0 -43491-2 0  9998,2 51855  53.2178  41.5430 0007963 278.5278  81.4812 15.09717056 64839,6915.201,95.382,542.572,531.559,0.0
51855.0,STARLINK-3545,PAYLOAD,2023-04-27 14:00:01,15.08835437,0.0004471,53.2176,39.7281,276.9906,82.9521,0.00015682,2.208e-05,0.0,0 STARLINK-3545,1 51855U 22022D   23117.58335648  .00002208  00000-0  15682-3 0  9995,2 51855  53.2176  39.7281 0004471 276.9906  82.9521 15.08835437  1298,6917.894,95.438,542.852,536.666,0.0
51855.0,STARLINK-3545,PAYLOAD,2023-04-27 18:46:28,15.09330041,0.0006113,53.2199,38.8595,277.1411,82.8886,-0.0045888,-0.0007359,0.0,0 STARLINK-3545,1 51855U 22022D   23117.78227261 -.00073590  00000-0 -45888-2 0  9992,2 51855  53.2199  38.8595 0006113 277.1411  82.8886 15.09330041 64924,6916.383,95.407,542.476,534.02,0.0
51855.0,STARLINK-3545,PAYLOAD,2023-04-28 01:07:54,15.09292657,0.0006468,53.2186,37.6679,278.1073,81.9186,-0.0045684,-0.00073198,0.0,0 STARLINK-3545,1 51855U 22022D   23118.04716355 -.00073198  00000-0 -45684-2 0  9997,2 51855  53.2186  37.6679 0006468 278.1073  81.9186 15.09292657 64965,6916.497,95.409,542.836,533.889,0.0
51855.0,STARLINK-3545,PAYLOAD,2023-04-28 18:36:58,15.09112657,0.0006124,53.2175,34.3958,279.3638,80.6662,-0.0028194,-0.00045235,0.0,0 STARLINK-3545,1 51855U 22022D   23118.77567578 -.00045235  00000-0 -28194-2 0  9996,2 51855  53.2175  34.3958 0006124 279.3638  80.6662 15.09112657 65075,6917.047,95.42,543.148,534.676,0.0
51855.0,STARLINK-3545,PAYLOAD,2023-04-29 06:00:00,15.08797848,0.0005149,53.2178,32.2671,284.4104,133.5587,0.0015766,0.00024869,0.0,0 STARLINK-3545,1 51855U 22022D   23119.25001157  .00024869  00000-0  15766-2 0  9995,2 51855  53.2178  32.2671 0005149 284.4104 133.5587 15.08797848 65140,6918.009,95.44,543.436,536.312,0.0
51855.0,STARLINK-3545,PAYLOAD,2023-04-29 14:00:01,15.08798337,0.0005046,53.2181,30.769,282.721,146.8746,0.0026538,0.00042161,0.0,0 STARLINK-3545,1 51855U 22022D   23119.58335648  .00042161  00000-0  26538-2 0  9990,2 51855  53.2181  30.7690 0005046 282.7210 146.8746 15.08798337  1309,6918.008,95.44,543.364,536.382,0.0
51855.0,STARLINK-3545,PAYLOAD,2023-04-30 00:49:19,15.08840357,0.0005677,53.2197,28.7502,289.0664,70.9713,-0.0001789,-3.137e-05,0.0,0 STARLINK-3545,1 51855U 22022D   23120.03424955 -.00003137  00000-0 -17890-3 0  9996,2 51855  53.2197  28.7502 0005677 289.0664  70.9713 15.08840357 65264,6917.879,95.438,543.672,535.817,0.0
51855.0,STARLINK-3545,PAYLOAD,2023-05-01 03:50:52,15.08830289,0.0005124,53.2189,23.6907,290.0774,69.9666,9.0363e-05,1.149e-05,0.0,0 STARLINK-3545,1 51855U 22022D   23121.16032906  .00001149  00000-0  90363-4 0  9998,2 51855  53.2189  23.6907 0005124 290.0774  69.9666 15.08830289 65436,6917.91,95.438,543.32,536.23,0.0
51855.0,STARLINK-3545,PAYLOAD,2023-05-01 21:20:08,15.08818749,0.0004667,53.2197,20.4198,290.7959,69.2533,-2.5024e-05,-6.87e-06,0.0,0 STARLINK-3545,1 51855U 22022D   23121.88899044 -.00000687  00000-0 -25024-4 0  9991,2 51855  53.2197  20.4198 0004667 290.7959  69.2533 15.08818749 65540,6917.945,95.439,543.039,536.582,0.0
51855.0,STARLINK-3545,PAYLOAD,2023-05-01 22:55:31,15.08819835,0.0004651,53.2194,20.1223,291.1491,68.9004,-1.5387e-05,-5.34e-06,0.0,0 STARLINK-3545,1 51855U 22022D   23121.95523027 -.00000534  00000-0 -15387-4 0  9996,2 51855  53.2194  20.1223 0004651 291.1491  68.9004 15.08819835 65559,6917.942,95.439,543.025,536.589,0.0
51855.0,STARLINK-3545,PAYLOAD,2023-05-02 02:06:18,15.08822172,0.0004559,53.2196,19.5272,290.9232,69.1272,6.5232e-06,-1.85e-06,0.0,0 STARLINK-3545,1 51855U 22022D   23122.08771013 -.00000185  00000-0  65232-5 0  9997,2 51855  53.2196  19.5272 0004559 290.9232  69.1272 15.08822172 65574,6917.935,95.439,542.954,536.646,0.0
51855.0,STARLINK-3545,PAYLOAD,2023-05-02 18:00:08,15.088457,0.0004773,53.2184,16.5539,296.5776,63.4726,0.00014779,2.064e-05,0.0,0 STARLINK-3545,1 51855U 22022D   23122.75009400  .00002064  00000-0  14779-3 0  9990,2 51855  53.2184  16.5539 0004773 296.5776  63.4726 15.08845700 65671,6917.863,95.437,543.03,536.426,0.0
51855.0,STARLINK-3545,PAYLOAD,2023-05-02 21:10:53,15.08850897,0.0004809,53.219,15.9597,297.3723,62.678,0.00020438,2.967e-05,0.0,0 STARLINK-3545,1 51855U 22022D   23122.88256892  .00002967  00000-0  20438-3 0  9994,2 51855  53.2190  15.9597 0004809 297.3723  62.6780 15.08850897 65692,6917.847,95.437,543.039,536.385,0.0
51855.0,STARLINK-3545,PAYLOAD,2023-05-03 01:57:03,15.08854257,0.0004735,53.2192,15.0677,297.5133,62.5378,0.00023287,3.421e-05,0.0,0 STARLINK-3545,1 51855U 22022D   23123.08128735  .00003421  00000-0  23287-3 0  9992,2 51855  53.2192  15.0677 0004735 297.5133  62.5378 15.08854257 65729,6917.837,95.437,542.977,536.426,0.0
51855.0,STARLINK-3545,PAYLOAD,2023-05-03 09:53:59,15.08848379,0.0004564,53.218,13.5829,296.1566,63.8956,0.00030118,4.509e-05,0.0,0 STARLINK-3545,1 51855U 22022D   23123.41248984  .00004509  00000-0  30118-3 0  9997,2 51855  53.2180  13.5829 0004564 296.1566  63.8956 15.08848379 65772,6917.855,95.437,542.877,536.562,0.0
51855.0,STARLINK-3545,PAYLOAD,2023-05-03 16:15:32,15.08843316,0.0004537,53.2186,12.3913,301.0782,58.9764,0.0002364,3.476e-05,0.0,0 STARLINK-3545,1 51855U 22022D   23123.67745381  .00003476  00000-0  23640-3 0  9992,2 51855  53.2186  12.3913 0004537 301.0782  58.9764 15.08843316 65818,6917.87,95.437,542.874,536.597,0.0
